CCSDS_OMM_VERS = 2.0
CREATION_DATE  = 
ORIGINATOR     = 

OBJECT_NAME    = SOYUZ-MS 28
OBJECT_ID      = 2025-275A
CENTER_NAME    = EARTH
REF_FRAME      = TEME
TIME_SYSTEM    = UTC
MEAN_ELEMENT_THEORY = SGP/SGP4

EPOCH          = 2025-12-21T04:22:59.119680
MEAN_MOTION    = 15.49696285
ECCENTRICITY   = .00031756
INCLINATION    = 51.6324
RA_OF_ASC_NODE = 100.6685
ARG_OF_PERICENTER = 279.9061
MEAN_ANOMALY   = 80.1569

EPHEMERIS_TYPE = 0
CLASSIFICATION_TYPE = U
NORAD_CAT_ID   = 66664
ELEMENT_SET_NO = 999
REV_AT_EPOCH   = 128
BSTAR          = .15703459E-3
MEAN_MOTION_DOT = .8423E-4
MEAN_MOTION_DDOT = 0

CCSDS_OMM_VERS = 2.0
CREATION_DATE  = 
ORIGINATOR     = 

OBJECT_NAME    = 1998-067XS
OBJECT_ID      = 1998-067XS
CENTER_NAME    = EARTH
REF_FRAME      = TEME
TIME_SYSTEM    = UTC
MEAN_ELEMENT_THEORY = SGP/SGP4

EPOCH          = 2025-12-20T11:05:35.991168
MEAN_MOTION    = 15.50962254
ECCENTRICITY   = .00030029
INCLINATION    = 51.6311
RA_OF_ASC_NODE = 104.1082
ARG_OF_PERICENTER = 237.5000
MEAN_ANOMALY   = 122.5699

EPHEMERIS_TYPE = 0
CLASSIFICATION_TYPE = U
NORAD_CAT_ID   = 66906
ELEMENT_SET_NO = 999
REV_AT_EPOCH   = 281
BSTAR          = .37246497E-3
MEAN_MOTION_DOT = .21596E-3
MEAN_MOTION_DDOT = 0

CCSDS_OMM_VERS = 2.0
CREATION_DATE  = 
ORIGINATOR     = 

OBJECT_NAME    = 1998-067XT
OBJECT_ID      = 1998-067XT
CENTER_NAME    = EARTH
REF_FRAME      = TEME
TIME_SYSTEM    = UTC
MEAN_ELEMENT_THEORY = SGP/SGP4

EPOCH          = 2025-12-19T11:42:50.767776
MEAN_MOTION    = 15.52255247
ECCENTRICITY   = .0003998
INCLINATION    = 51.6306
RA_OF_ASC_NODE = 108.8528
ARG_OF_PERICENTER = 265.7173
MEAN_ANOMALY   = 94.3360

EPHEMERIS_TYPE = 0
CLASSIFICATION_TYPE = U
NORAD_CAT_ID   = 66907
ELEMENT_SET_NO = 999
REV_AT_EPOCH   = 266
BSTAR          = .77339E-3
MEAN_MOTION_DOT = .47666E-3
MEAN_MOTION_DDOT = 0

CCSDS_OMM_VERS = 2.0
CREATION_DATE  = 
ORIGINATOR     = 

OBJECT_NAME    = 1998-067XU
OBJECT_ID      = 1998-067XU
CENTER_NAME    = EARTH
REF_FRAME      = TEME
TIME_SYSTEM    = UTC
MEAN_ELEMENT_THEORY = SGP/SGP4

EPOCH          = 2025-12-21T00:46:29.963136
MEAN_MOTION    = 15.52510982
ECCENTRICITY   = .00039042
INCLINATION    = 51.6311
RA_OF_ASC_NODE = 101.1653
ARG_OF_PERICENTER = 276.2494
MEAN_ANOMALY   = 83.8051

EPHEMERIS_TYPE = 0
CLASSIFICATION_TYPE = U
NORAD_CAT_ID   = 66908
ELEMENT_SET_NO = 999
REV_AT_EPOCH   = 290
BSTAR          = .80289362E-3
MEAN_MOTION_DOT = .49977E-3
MEAN_MOTION_DDOT = 0

CCSDS_OMM_VERS = 2.0
CREATION_DATE  = 
ORIGINATOR     = 

OBJECT_NAME    = SILVERSAT
OBJECT_ID      = 1998-067XV
CENTER_NAME    = EARTH
REF_FRAME      = TEME
TIME_SYSTEM    = UTC
MEAN_ELEMENT_THEORY = SGP/SGP4

EPOCH          = 2025-12-21T00:44:56.475744
MEAN_MOTION    = 15.52677939
ECCENTRICITY   = .0003815
INCLINATION    = 51.6312
RA_OF_ASC_NODE = 101.1583
ARG_OF_PERICENTER = 279.3746
MEAN_ANOMALY   = 80.6813

EPHEMERIS_TYPE = 0
CLASSIFICATION_TYPE = U
NORAD_CAT_ID   = 66909
ELEMENT_SET_NO = 999
REV_AT_EPOCH   = 290
BSTAR          = .85685378E-3
MEAN_MOTION_DOT = .53716E-3
MEAN_MOTION_DDOT = 0

CCSDS_OMM_VERS = 2.0
CREATION_DATE  = 
ORIGINATOR     = 

OBJECT_NAME    = 1998-067XW
OBJECT_ID      = 1998-067XW
CENTER_NAME    = EARTH
REF_FRAME      = TEME
TIME_SYSTEM    = UTC
MEAN_ELEMENT_THEORY = SGP/SGP4

EPOCH          = 2025-12-21T00:42:22.362336
MEAN_MOTION    = 15.52668327
ECCENTRICITY   = .00041762
INCLINATION    = 51.6309
RA_OF_ASC_NODE = 101.1459
ARG_OF_PERICENTER = 252.7985
MEAN_ANOMALY   = 107.2548

EPHEMERIS_TYPE = 0
CLASSIFICATION_TYPE = U
NORAD_CAT_ID   = 66910
ELEMENT_SET_NO = 999
REV_AT_EPOCH   = 290
BSTAR          = .74556419E-3
MEAN_MOTION_DOT = .46622E-3
MEAN_MOTION_DDOT = 0

CCSDS_OMM_VERS = 2.0
CREATION_DATE  = 
ORIGINATOR     = 

OBJECT_NAME    = 1998-067XX
OBJECT_ID      = 1998-067XX
CENTER_NAME    = EARTH
REF_FRAME      = TEME
TIME_SYSTEM    = UTC
MEAN_ELEMENT_THEORY = SGP/SGP4

EPOCH          = 2025-12-21T00:38:37.983264
MEAN_MOTION    = 15.53092393
ECCENTRICITY   = .00038843
INCLINATION    = 51.6313
RA_OF_ASC_NODE = 101.1286
ARG_OF_PERICENTER = 257.9049
MEAN_ANOMALY   = 102.1506

EPHEMERIS_TYPE = 0
CLASSIFICATION_TYPE = U
NORAD_CAT_ID   = 66911
ELEMENT_SET_NO = 999
REV_AT_EPOCH   = 289
BSTAR          = .83173012E-3
MEAN_MOTION_DOT = .52914E-3
MEAN_MOTION_DDOT = 0

CCSDS_OMM_VERS = 2.0
CREATION_DATE  = 
ORIGINATOR     = 

OBJECT_NAME    = 1998-067XY
OBJECT_ID      = 1998-067XY
CENTER_NAME    = EARTH
REF_FRAME      = TEME
TIME_SYSTEM    = UTC
MEAN_ELEMENT_THEORY = SGP/SGP4

EPOCH          = 2025-12-19T14:52:14.043072
MEAN_MOTION    = 15.51780846
ECCENTRICITY   = .0004012
INCLINATION    = 51.6307
RA_OF_ASC_NODE = 108.2310
ARG_OF_PERICENTER = 260.8810
MEAN_ANOMALY   = 99.1725

EPHEMERIS_TYPE = 0
CLASSIFICATION_TYPE = U
NORAD_CAT_ID   = 66912
ELEMENT_SET_NO = 999
REV_AT_EPOCH   = 267
BSTAR          = .63264E-3
MEAN_MOTION_DOT = .38197E-3
MEAN_MOTION_DDOT = 0

