SOYUZ-MS 28             
1 66664U 25275A   25355.18262870  .00008423  00000+0  15703-3 0  9998
2 66664  51.6324 100.6685 0003175 279.9061  80.1569 15.49696285  1282
1998-067XS              
1 66906U 98067XS  25354.46222212  .00021596  00000+0  37246-3 0  9994
2 66906  51.6311 104.1082 0003002 237.5000 122.5699 15.50962254  2818
1998-067XT              
1 66907U 98067XT  25353.48808759  .00047666  00000+0  77339-3 0  9995
2 66907  51.6306 108.8528 0003998 265.7173  94.3360 15.52255247  2660
1998-067XU              
1 66908U 98067XU  25355.03229124  .00049977  00000+0  80289-3 0  9997
2 66908  51.6311 101.1653 0003904 276.2494  83.8051 15.52510982  2909
SILVERSAT               
1 66909U 98067XV  25355.03120921  .00053716  00000+0  85685-3 0  9994
2 66909  51.6312 101.1583 0003815 279.3746  80.6813 15.52677939  2905
1998-067XW              
1 66910U 98067XW  25355.02942549  .00046622  00000+0  74556-3 0  9996
2 66910  51.6309 101.1459 0004176 252.7985 107.2548 15.52668327  2908
1998-067XX              
1 66911U 98067XX  25355.02682851  .00052914  00000+0  83173-3 0  9990
2 66911  51.6313 101.1286 0003884 257.9049 102.1506 15.53092393  2896
1998-067XY              
1 66912U 98067XY  25353.61960698  .00038197  00000+0  63264-3 0  9998
2 66912  51.6307 108.2310 0004012 260.8810  99.1725 15.51780846  2678
